{
    "links": {
        "self": "http://www.neowsapp.com/rest/v1/neo/3574101?api_key=iIulBulltgU6a56xZRHN4H3l9WmuAYTsLGpBGhQ2"
    },
    "id": "3574101",
    "neo_reference_id": "3574101",
    "name": "(2011 OS15)",
    "designation": "2011 OS15",
    "nasa_jpl_url": "http://ssd.jpl.nasa.gov/sbdb.cgi?sstr=3574101",
    "absolute_magnitude_h": 24.2,
    "estimated_diameter": {
        "kilometers": {
            "estimated_diameter_min": 0.0384197891,
            "estimated_diameter_max": 0.0859092601
        },
        "meters": {
            "estimated_diameter_min": 38.4197891064,
            "estimated_diameter_max": 85.9092601232
        },
        "miles": {
            "estimated_diameter_min": 0.0238729428,
            "estimated_diameter_max": 0.0533815229
        },
        "feet": {
            "estimated_diameter_min": 126.0491808919,
            "estimated_diameter_max": 281.8545369825
        }
    },
    "is_potentially_hazardous_asteroid": false,
    "close_approach_data": [
        {
            "close_approach_date": "2011-07-08",
            "close_approach_date_full": "2011-Jul-08 03:45",
            "epoch_date_close_approach": 1310096700000,
            "relative_velocity": {
                "kilometers_per_second": "4.099021824",
                "kilometers_per_hour": "14756.4785662267",
                "miles_per_hour": "9169.1019179979"
            },
            "miss_distance": {
                "astronomical": "0.1600718507",
                "lunar": "62.2679499223",
                "kilometers": "23946407.911678009",
                "miles": "14879607.8997301642"
            },
            "orbiting_body": "Earth"
        }
    ],
    "orbital_data": {
        "orbit_id": "6",
        "orbit_determination_date": "2017-04-06 08:53:07",
        "first_observation_date": "2011-07-27",
        "last_observation_date": "2011-08-01",
        "data_arc_in_days": 5,
        "observations_used": 16,
        "orbit_uncertainty": "8",
        "minimum_orbit_intersection": ".141533",
        "jupiter_tisserand_invariant": "4.075",
        "epoch_osculation": "2455772.5",
        "eccentricity": ".3348526603083621",
        "semi_major_axis": "1.740517125079629",
        "inclination": "5.382474634237361",
        "ascending_node_longitude": "111.9199599564417",
        "orbital_period": "838.7178344241253",
        "perihelion_distance": "1.157700335434453",
        "perihelion_argument": "171.6723414454575",
        "aphelion_distance": "2.323333914724805",
        "perihelion_time": "2455744.350936566314",
        "mean_anomaly": "12.08232664217146",
        "mean_motion": ".4292265947190461",
        "equinox": "J2000",
        "orbit_class": {
            "orbit_class_type": "AMO",
            "orbit_class_description": "Near-Earth asteroid orbits similar to that of 1221 Amor",
            "orbit_class_range": "1.017 AU < q (perihelion) < 1.3 AU"
        }
    },
    "is_sentry_object": false
}